{"type": "FeatureCollection", "features": [ {"type": "Feature", "properties": {"norad_id": 66909, "name": "SILVERSAT", "group": "last-30-days", "lat": -39.0217515770149, "lon": 12.421251110848743, "alt_km": 414.2198600884576, "timestamp": "2025-12-10T16:57:10.417312+00:00", "meta": {"OBJECT_NAME": "SILVERSAT", "OBJECT_ID": "1998-067XV", "EPOCH": "2025-12-09T19:50:59.696448", "MEAN_MOTION": 15.51056405, "ECCENTRICITY": 0.00048767, "INCLINATION": 51.6304, "RA_OF_ASC_NODE": 156.8402, "ARG_OF_PERICENTER": 210.6196, "MEAN_ANOMALY": 149.451, "EPHEMERIS_TYPE": 0, "CLASSIFICATION_TYPE": "U", "NORAD_CAT_ID": 66909, "ELEMENT_SET_NO": 999, "REV_AT_EPOCH": 116, "BSTAR": 0.001540003, "MEAN_MOTION_DOT": 0.00091886, "MEAN_MOTION_DDOT": 0}, "tle": {"line1": "1 66909U 98067XV  25343.82707982  .00091886  00000+0  15400-2 0  9993", "line2": "2 66909  51.6304 156.8402 0004876 210.6196 149.4510 15.51056405  1161"}}, "geometry": {"type": "Point", "coordinates": [12.421251110848743, -39.0217515770149]}}, {"type": "Feature", "properties": {"norad_id": 66910, "name": "1998-067XW", "group": "last-30-days", "lat": -43.14022114711026, "lon": 20.40365332219887, "alt_km": 414.236205637264, "timestamp": "2025-12-10T16:57:10.417322+00:00", "meta": {"OBJECT_NAME": "1998-067XW", "OBJECT_ID": "1998-067XW", "EPOCH": "2025-12-10T11:16:54.562944", "MEAN_MOTION": 15.51350337, "ECCENTRICITY": 0.0005542, "INCLINATION": 51.6299, "RA_OF_ASC_NODE": 153.635, "ARG_OF_PERICENTER": 197.1967, "MEAN_ANOMALY": 162.8836, "EPHEMERIS_TYPE": 0, "CLASSIFICATION_TYPE": "U", "NORAD_CAT_ID": 66910, "ELEMENT_SET_NO": 999, "REV_AT_EPOCH": 126, "BSTAR": 0.0013818, "MEAN_MOTION_DOT": 0.00083191, "MEAN_MOTION_DDOT": 0}, "tle": {"line1": "1 66910U 98067XW  25344.47007596  .00083191  00000+0  13818-2 0  9992", "line2": "2 66910  51.6299 153.6350 0005542 197.1967 162.8836 15.51350337  1261"}}, "geometry": {"type": "Point", "coordinates": [20.40365332219887, -43.14022114711026]}}, {"type": "Feature", "properties": {"norad_id": 66911, "name": "1998-067XX", "group": "last-30-days", "lat": -44.33233003179836, "lon": 23.173346374168712, "alt_km": 413.89100794424394, "timestamp": "2025-12-10T16:57:10.417333+00:00", "meta": {"OBJECT_NAME": "1998-067XX", "OBJECT_ID": "1998-067XX", "EPOCH": "2025-12-09T02:48:25.040736", "MEAN_MOTION": 15.51276485, "ECCENTRICITY": 0.00057034, "INCLINATION": 51.6296, "RA_OF_ASC_NODE": 160.3494, "ARG_OF_PERICENTER": 191.2268, "MEAN_ANOMALY": 168.8595, "EPHEMERIS_TYPE": 0, "CLASSIFICATION_TYPE": "U", "NORAD_CAT_ID": 66911, "ELEMENT_SET_NO": 999, "REV_AT_EPOCH": 104, "BSTAR": 0.0014245982, "MEAN_MOTION_DOT": 0.00085582, "MEAN_MOTION_DDOT": 0}, "tle": {"line1": "1 66911U 98067XX  25343.11695649  .00085582  00000+0  14246-2 0  9997", "line2": "2 66911  51.6296 160.3494 0005703 191.2268 168.8595 15.51276485  1046"}}, "geometry": {"type": "Point", "coordinates": [23.173346374168712, -44.33233003179836]}}, {"type": "Feature", "properties": {"norad_id": 66912, "name": "1998-067XY", "group": "last-30-days", "lat": -35.222917829835225, "lon": 6.497712133215703, "alt_km": 415.0922636910909, "timestamp": "2025-12-10T16:57:10.417343+00:00", "meta": {"OBJECT_NAME": "1998-067XY", "OBJECT_ID": "1998-067XY", "EPOCH": "2025-12-08T19:07:24.168000", "MEAN_MOTION": 15.50590071, "ECCENTRICITY": 0.00050436, "INCLINATION": 51.6301, "RA_OF_ASC_NODE": 161.961, "ARG_OF_PERICENTER": 202.8278, "MEAN_ANOMALY": 157.2488, "EPHEMERIS_TYPE": 0, "CLASSIFICATION_TYPE": "U", "NORAD_CAT_ID": 66912, "ELEMENT_SET_NO": 999, "REV_AT_EPOCH": 99, "BSTAR": 0.0009627216, "MEAN_MOTION_DOT": 0.00056065, "MEAN_MOTION_DDOT": 0}, "tle": {"line1": "1 66912U 98067XY  25342.79680750  .00056065  00000+0  96272-3 0  9992", "line2": "2 66912  51.6301 161.9610 0005043 202.8278 157.2488 15.50590071   993"}}, "geometry": {"type": "Point", "coordinates": [6.497712133215703, -35.222917829835225]}}, {"type": "Feature", "properties": {"norad_id": 66913, "name": "2025-284A", "group": "last-30-days", "lat": 69.72523992016792, "lon": -74.91257418180179, "alt_km": 504.1491216934719, "timestamp": "2025-12-10T16:57:10.417370+00:00", "meta": {"OBJECT_NAME": "2025-284A", "OBJECT_ID": "2025-284A", "EPOCH": "2025-12-10T11:44:07.840032", "MEAN_MOTION": 15.18896949, "ECCENTRICITY": 0.0011957, "INCLINATION": 80.4047, "RA_OF_ASC_NODE": 132.6177, "ARG_OF_PERICENTER": 211.3387, "MEAN_ANOMALY": 148.713, "EPHEMERIS_TYPE": 0, "CLASSIFICATION_TYPE": "U", "NORAD_CAT_ID": 66913, "ELEMENT_SET_NO": 999, "REV_AT_EPOCH": 78, "BSTAR": 0.00071514, "MEAN_MOTION_DOT": 0.0001498, "MEAN_MOTION_DDOT": 0}, "tle": {"line1": "1 66913U 25284A   25344.48897963  .00014980  00000+0  71514-3 0  9990", "line2": "2 66913  80.4047 132.6177 0011957 211.3387 148.7130 15.18896949   784"}}, "geometry": {"type": "Point", "coordinates": [-74.91257418180179, 69.72523992016792]}}, {"type": "Feature", "properties": {"norad_id": 66914, "name": "2025-284B", "group": "last-30-days", "lat": 67.44243191062384, "lon": -71.68716728776295, "alt_km": 507.17365897602576, "timestamp": "2025-12-10T16:57:10.417383+00:00", "meta": {"OBJECT_NAME": "2025-284B", "OBJECT_ID": "2025-284B", "EPOCH": "2025-12-10T13:18:19.576800", "MEAN_MOTION": 15.18851979, "ECCENTRICITY": 0.0008179, "INCLINATION": 80.4057, "RA_OF_ASC_NODE": 132.5353, "ARG_OF_PERICENTER": 253.858, "MEAN_ANOMALY": 106.1747, "EPHEMERIS_TYPE": 0, "CLASSIFICATION_TYPE": "U", "NORAD_CAT_ID": 66914, "ELEMENT_SET_NO": 999, "REV_AT_EPOCH": 79, "BSTAR": 0.00071419, "MEAN_MOTION_DOT": 0.00014926, "MEAN_MOTION_DDOT": 0}, "tle": {"line1": "1 66914U 25284B   25344.55439325  .00014926  00000+0  71419-3 0  9997", "line2": "2 66914  80.4057 132.5353 0008179 253.8580 106.1747 15.18851979   796"}}, "geometry": {"type": "Point", "coordinates": [-71.68716728776295, 67.44243191062384]}}, {"type": "Feature", "properties": {"norad_id": 66915, "name": "HULIANWANG DIGUI 14A", "group": "last-30-days", "lat": -17.468091003353546, "lon": 110.24878744717986, "alt_km": 874.5939942150526, "timestamp": "2025-12-10T16:57:10.417392+00:00", "meta": {"OBJECT_NAME": "HULIANWANG DIGUI 14A", "OBJECT_ID": "2025-285A", "EPOCH": "2025-12-10T11:56:34.111392", "MEAN_MOTION": 14.05466377, "ECCENTRICITY": 0.0008111, "INCLINATION": 50.0034, "RA_OF_ASC_NODE": 126.4203, "ARG_OF_PERICENTER": 275.0273, "MEAN_ANOMALY": 84.9706, "EPHEMERIS_TYPE": 0, "CLASSIFICATION_TYPE": "U", "NORAD_CAT_ID": 66915, "ELEMENT_SET_NO": 999, "REV_AT_EPOCH": 59, "BSTAR": 1.4207e-05, "MEAN_MOTION_DOT": -1.29e-06, "MEAN_MOTION_DDOT": 0}, "tle": {"line1": "1 66915U 25285A   25344.49761703 -.00000129  00000+0  14207-4 0  9994", "line2": "2 66915  50.0034 126.4203 0008111 275.0273  84.9706 14.05466377   597"}}, "geometry": {"type": "Point", "coordinates": [110.24878744717986, -17.468091003353546]}}, {"type": "Feature", "properties": {"norad_id": 66916, "name": "HULIANWANG DIGUI 14B", "group": "last-30-days", "lat": -16.904821988681764, "lon": 110.78577410375713, "alt_km": 875.2606715560942, "timestamp": "2025-12-10T16:57:10.417402+00:00", "meta": {"OBJECT_NAME": "HULIANWANG DIGUI 14B", "OBJECT_ID": "2025-285B", "EPOCH": "2025-12-10T11:56:21.781248", "MEAN_MOTION": 14.05512764, "ECCENTRICITY": 0.0006964, "INCLINATION": 50.0045, "RA_OF_ASC_NODE": 126.4208, "ARG_OF_PERICENTER": 269.7548, "MEAN_ANOMALY": 90.2559, "EPHEMERIS_TYPE": 0, "CLASSIFICATION_TYPE": "U", "NORAD_CAT_ID": 66916, "ELEMENT_SET_NO": 999, "REV_AT_EPOCH": 59, "BSTAR": 1.427e-05, "MEAN_MOTION_DOT": -1.29e-06, "MEAN_MOTION_DDOT": 0}, "tle": {"line1": "1 66916U 25285B   25344.49747432 -.00000129  00000+0  14270-4 0  9998", "line2": "2 66916  50.0045 126.4208 0006964 269.7548  90.2559 14.05512764   592"}}, "geometry": {"type": "Point", "coordinates": [110.78577410375713, -16.904821988681764]}}, {"type": "Feature", "properties": {"norad_id": 66917, "name": "HULIANWANG DIGUI 14C", "group": "last-30-days", "lat": -16.081551247841862, "lon": 111.55453479613932, "alt_km": 874.2309496757498, "timestamp": "2025-12-10T16:57:10.417415+00:00", "meta": {"OBJECT_NAME": "HULIANWANG DIGUI 14C", "OBJECT_ID": "2025-285C", "EPOCH": "2025-12-10T11:56:03.638112", "MEAN_MOTION": 14.05578834, "ECCENTRICITY": 0.0007534, "INCLINATION": 50.0009, "RA_OF_ASC_NODE": 126.4163, "ARG_OF_PERICENTER": 277.4365, "MEAN_ANOMALY": 82.5684, "EPHEMERIS_TYPE": 0, "CLASSIFICATION_TYPE": "U", "NORAD_CAT_ID": 66917, "ELEMENT_SET_NO": 999, "REV_AT_EPOCH": 59, "BSTAR": -2.6357e-06, "MEAN_MOTION_DOT": -1.56e-06, "MEAN_MOTION_DDOT": 0}, "tle": {"line1": "1 66917U 25285C   25344.49726433 -.00000156  00000+0 -26357-5 0  9998", "line2": "2 66917  50.0009 126.4163 0007534 277.4365  82.5684 14.05578834   593"}}, "geometry": {"type": "Point", "coordinates": [111.55453479613932, -16.081551247841862]}}, {"type": "Feature", "properties": {"norad_id": 66918, "name": "HULIANWANG DIGUI 14D", "group": "last-30-days", "lat": -14.668310382917955, "lon": 112.86631046371932, "alt_km": 874.543874418463, "timestamp": "2025-12-10T16:57:10.417425+00:00", "meta": {"OBJECT_NAME": "HULIANWANG DIGUI 14D", "OBJECT_ID": "2025-285D", "EPOCH": "2025-12-10T11:55:32.926368", "MEAN_MOTION": 14.05703368, "ECCENTRICITY": 0.0006461, "INCLINATION": 50.0042, "RA_OF_ASC_NODE": 126.4163, "ARG_OF_PERICENTER": 272.5409, "MEAN_ANOMALY": 87.4756, "EPHEMERIS_TYPE": 0, "CLASSIFICATION_TYPE": "U", "NORAD_CAT_ID": 66918, "ELEMENT_SET_NO": 999, "REV_AT_EPOCH": 59, "BSTAR": 5.2437e-06, "MEAN_MOTION_DOT": -1.44e-06, "MEAN_MOTION_DDOT": 0}, "tle": {"line1": "1 66918U 25285D   25344.49690887 -.00000144  00000+0  52437-5 0  9996", "line2": "2 66918  50.0042 126.4163 0006461 272.5409  87.4756 14.05703368   590"}}, "geometry": {"type": "Point", "coordinates": [112.86631046371932, -14.668310382917955]}}]}